start=new Date('2022-08-29T00:00:00.000Z').valueOf();
sats=[{"OBJECT_NAME":"STARLINK-3857","CLASSIFICATION_TYPE":"U","SITE":"AFETR","RCS_SIZE":"LARGE","PERIOD":"95.439","EPOCH":"2022-08-28T22:00:00.999936","ARG_OF_PERICENTER":"52.5585","DECAY_DATE":null,"NORAD_CAT_ID":"52494","REV_AT_EPOCH":"130","INCLINATION":"53.2211","OBJECT_ID":"2022-049AV","LAUNCH_DATE":"2022-05-06","REF_FRAME":"TEME","CENTER_NAME":"EARTH","APOAPSIS":"541.092","TLE_LINE1":"1 52494U 22049AV  22240.91667824  .00022379  00000-0  14206-2 0  9992","MEAN_ANOMALY":"343.2256","MEAN_MOTION":"15.08817432","EPHEMERIS_TYPE":"0","TIME_SYSTEM":"UTC","RA_OF_ASC_NODE":"74.6412","MEAN_ELEMENT_THEORY":"SGP4","BSTAR":"0.00142060000000","FILE":"3550014","PERIAPSIS":"538.537","TLE_LINE2":"2 52494  53.2211  74.6412 0001847  52.5585 343.2256 15.08817432  1302","COUNTRY_CODE":"US","OBJECT_TYPE":"PAYLOAD","MEAN_MOTION_DDOT":"0.0000000000000","ELEMENT_SET_NO":"999","GP_ID":"211215549","SEMIMAJOR_AXIS":"6917.949","MEAN_MOTION_DOT":"0.00022379","ECCENTRICITY":"0.00018470"},{"RCS_SIZE":"LARGE","PERIOD":"95.439","SITE":"AFETR","DECAY_DATE":null,"EPOCH":"2022-08-28T22:00:00.999936","ARG_OF_PERICENTER":"56.9980","CLASSIFICATION_TYPE":"U","OBJECT_NAME":"STARLINK-3905","LAUNCH_DATE":"2022-05-06","REF_FRAME":"TEME","NORAD_CAT_ID":"52495","REV_AT_EPOCH":"130","OBJECT_ID":"2022-049AW","INCLINATION":"53.2177","RA_OF_ASC_NODE":"74.6351","BSTAR":"0.00171360000000","MEAN_ELEMENT_THEORY":"SGP4","MEAN_MOTION":"15.08824025","TIME_SYSTEM":"UTC","EPHEMERIS_TYPE":"0","PERIAPSIS":"538.390","FILE":"3550014","TLE_LINE1":"1 52495U 22049AW  22240.91667824  .00027077  00000-0  17136-2 0  9998","APOAPSIS":"541.199","CENTER_NAME":"EARTH","MEAN_ANOMALY":"258.7582","GP_ID":"211215404","ECCENTRICITY":"0.00020300","SEMIMAJOR_AXIS":"6917.929","MEAN_MOTION_DOT":"0.00027077","COUNTRY_CODE":"US","OBJECT_TYPE":"PAYLOAD","MEAN_MOTION_DDOT":"0.0000000000000","TLE_LINE2":"2 52495  53.2177  74.6351 0002030  56.9980 258.7582 15.08824025  1306","ELEMENT_SET_NO":"999"},{"SEMIMAJOR_AXIS":"6895.496","MEAN_MOTION_DOT":"-0.00463694","ECCENTRICITY":"0.00015120","GP_ID":"211215692","ELEMENT_SET_NO":"999","TLE_LINE2":"2 52496  53.2176  69.8412 0001512  57.5599  45.7820 15.16193061  1304","OBJECT_TYPE":"PAYLOAD","COUNTRY_CODE":"US","MEAN_MOTION_DDOT":"0.0000000000000","PERIAPSIS":"516.318","FILE":"3550014","MEAN_MOTION":"15.16193061","EPHEMERIS_TYPE":"0","TIME_SYSTEM":"UTC","RA_OF_ASC_NODE":"69.8412","BSTAR":"-0.02526700000000","MEAN_ELEMENT_THEORY":"SGP4","MEAN_ANOMALY":"45.7820","CENTER_NAME":"EARTH","APOAPSIS":"518.404","TLE_LINE1":"1 52496U 22049AX  22240.91667824 -.00463694  00000-0 -25267-1 0  9993","REF_FRAME":"TEME","LAUNCH_DATE":"2022-05-06","INCLINATION":"53.2176","OBJECT_ID":"2022-049AX","NORAD_CAT_ID":"52496","REV_AT_EPOCH":"130","EPOCH":"2022-08-28T22:00:00.999936","ARG_OF_PERICENTER":"57.5599","DECAY_DATE":null,"SITE":"AFETR","RCS_SIZE":"LARGE","PERIOD":"94.975","OBJECT_NAME":"STARLINK-3871","CLASSIFICATION_TYPE":"U"},{"GP_ID":"211214841","SEMIMAJOR_AXIS":"6917.914","MEAN_MOTION_DOT":"0.00023719","ECCENTRICITY":"0.00018310","TLE_LINE2":"2 52497  53.2203  74.6405 0001831  47.7840 307.9615 15.08829036  1300","OBJECT_TYPE":"PAYLOAD","COUNTRY_CODE":"US","MEAN_MOTION_DDOT":"0.0000000000000","ELEMENT_SET_NO":"999","MEAN_MOTION":"15.08829036","TIME_SYSTEM":"UTC","EPHEMERIS_TYPE":"0","RA_OF_ASC_NODE":"74.6405","MEAN_ELEMENT_THEORY":"SGP4","BSTAR":"0.00150380000000","PERIAPSIS":"538.512","FILE":"3550014","CENTER_NAME":"EARTH","APOAPSIS":"541.046","TLE_LINE1":"1 52497U 22049AY  22240.91667824  .00023719  00000-0  15038-2 0  9998","MEAN_ANOMALY":"307.9615","LAUNCH_DATE":"2022-05-06","REF_FRAME":"TEME","NORAD_CAT_ID":"52497","REV_AT_EPOCH":"130","INCLINATION":"53.2203","OBJECT_ID":"2022-049AY","SITE":"AFETR","RCS_SIZE":"LARGE","PERIOD":"95.438","EPOCH":"2022-08-28T22:00:00.999936","ARG_OF_PERICENTER":"47.7840","DECAY_DATE":null,"OBJECT_NAME":"STARLINK-3884","CLASSIFICATION_TYPE":"U"},{"INCLINATION":"53.2175","OBJECT_ID":"2022-049AZ","REV_AT_EPOCH":"130","NORAD_CAT_ID":"52498","REF_FRAME":"TEME","LAUNCH_DATE":"2022-05-06","OBJECT_NAME":"STARLINK-3925","CLASSIFICATION_TYPE":"U","ARG_OF_PERICENTER":"54.9791","EPOCH":"2022-08-28T22:00:00.999936","DECAY_DATE":null,"SITE":"AFETR","PERIOD":"94.915","RCS_SIZE":"LARGE","ELEMENT_SET_NO":"999","TLE_LINE2":"2 52498  53.2175  64.7707 0001468  54.9791  21.1093 15.17147326  1305","MEAN_MOTION_DDOT":"0.0000000000000","COUNTRY_CODE":"US","OBJECT_TYPE":"PAYLOAD","MEAN_MOTION_DOT":"-0.01075080","SEMIMAJOR_AXIS":"6892.604","ECCENTRICITY":"0.00014680","GP_ID":"211215133","MEAN_ANOMALY":"21.1093","CENTER_NAME":"EARTH","TLE_LINE1":"1 52498U 22049AZ  22240.91667824 -.01075080  00000-0 -57772-1 0  9990","APOAPSIS":"515.481","FILE":"3550014","PERIAPSIS":"513.457","EPHEMERIS_TYPE":"0","TIME_SYSTEM":"UTC","MEAN_MOTION":"15.17147326","MEAN_ELEMENT_THEORY":"SGP4","BSTAR":"-0.05777200000000","RA_OF_ASC_NODE":"64.7707"},{"SITE":"AFETR","RCS_SIZE":"LARGE","PERIOD":"95.439","EPOCH":"2022-08-28T22:00:00.999936","ARG_OF_PERICENTER":"46.1681","DECAY_DATE":null,"OBJECT_NAME":"STARLINK-3894","CLASSIFICATION_TYPE":"U","LAUNCH_DATE":"2022-05-06","REF_FRAME":"TEME","NORAD_CAT_ID":"52499","REV_AT_EPOCH":"130","INCLINATION":"53.2211","OBJECT_ID":"2022-049BA","MEAN_MOTION":"15.08824507","TIME_SYSTEM":"UTC","EPHEMERIS_TYPE":"0","RA_OF_ASC_NODE":"74.6418","MEAN_ELEMENT_THEORY":"SGP4","BSTAR":"0.00143650000000","FILE":"3550014","PERIAPSIS":"538.453","CENTER_NAME":"EARTH","TLE_LINE1":"1 52499U 22049BA  22240.91667824  .00022638  00000-0  14365-2 0  9991","APOAPSIS":"541.132","MEAN_ANOMALY":"329.5805","GP_ID":"211214987","SEMIMAJOR_AXIS":"6917.928","MEAN_MOTION_DOT":"0.00022638","ECCENTRICITY":"0.00019360","TLE_LINE2":"2 52499  53.2211  74.6418 0001936  46.1681 329.5805 15.08824507  1306","OBJECT_TYPE":"PAYLOAD","COUNTRY_CODE":"US","MEAN_MOTION_DDOT":"0.0000000000000","ELEMENT_SET_NO":"999"},{"MEAN_MOTION":"15.13840414","TIME_SYSTEM":"UTC","EPHEMERIS_TYPE":"0","RA_OF_ASC_NODE":"64.6904","MEAN_ELEMENT_THEORY":"SGP4","BSTAR":"-0.06337100000000","PERIAPSIS":"523.440","FILE":"3550014","CENTER_NAME":"EARTH","TLE_LINE1":"1 52500U 22049BB  22240.91667824 -.01073186  00000-0 -63371-1 0  9991","APOAPSIS":"525.567","MEAN_ANOMALY":"71.8554","GP_ID":"211215856","SEMIMAJOR_AXIS":"6902.638","MEAN_MOTION_DOT":"-0.01073186","ECCENTRICITY":"0.00015410","TLE_LINE2":"2 52500  53.2175  64.6904 0001541  59.0313  71.8554 15.13840414  1303","COUNTRY_CODE":"US","OBJECT_TYPE":"PAYLOAD","MEAN_MOTION_DDOT":"0.0000000000000","ELEMENT_SET_NO":"999","SITE":"AFETR","RCS_SIZE":"LARGE","PERIOD":"95.122","EPOCH":"2022-08-28T22:00:00.999936","ARG_OF_PERICENTER":"59.0313","DECAY_DATE":null,"OBJECT_NAME":"STARLINK-3866","CLASSIFICATION_TYPE":"U","LAUNCH_DATE":"2022-05-06","REF_FRAME":"TEME","NORAD_CAT_ID":"52500","REV_AT_EPOCH":"130","INCLINATION":"53.2175","OBJECT_ID":"2022-049BB"},{"MEAN_MOTION":"15.08844751","TIME_SYSTEM":"UTC","EPHEMERIS_TYPE":"0","RA_OF_ASC_NODE":"74.6373","BSTAR":"-0.00032412000000","MEAN_ELEMENT_THEORY":"SGP4","PERIAPSIS":"538.496","FILE":"3550014","CENTER_NAME":"EARTH","TLE_LINE1":"1 52501U 22049BC  22240.91667824 -.00005444  00000-0 -32412-3 0  9997","APOAPSIS":"540.966","MEAN_ANOMALY":"337.5640","GP_ID":"211215260","SEMIMAJOR_AXIS":"6917.866","MEAN_MOTION_DOT":"-0.00005444","ECCENTRICITY":"0.00017850","TLE_LINE2":"2 52501  53.2196  74.6373 0001785  53.0170 337.5640 15.08844751  1303","COUNTRY_CODE":"US","OBJECT_TYPE":"PAYLOAD","MEAN_MOTION_DDOT":"0.0000000000000","ELEMENT_SET_NO":"999","SITE":"AFETR","RCS_SIZE":"LARGE","PERIOD":"95.437","EPOCH":"2022-08-28T22:00:00.999936","ARG_OF_PERICENTER":"53.0170","DECAY_DATE":null,"OBJECT_NAME":"STARLINK-3907","CLASSIFICATION_TYPE":"U","LAUNCH_DATE":"2022-05-06","REF_FRAME":"TEME","NORAD_CAT_ID":"52501","REV_AT_EPOCH":"130","INCLINATION":"53.2196","OBJECT_ID":"2022-049BC"},{"CENTER_NAME":"EARTH","APOAPSIS":"512.947","TLE_LINE1":"1 52502U 22049BD  22240.91667824 -.01074459  00000-0 -56400-1 0  9992","MEAN_ANOMALY":"43.0031","EPHEMERIS_TYPE":"0","TIME_SYSTEM":"UTC","MEAN_MOTION":"15.17958639","MEAN_ELEMENT_THEORY":"SGP4","BSTAR":"-0.05640000000000","RA_OF_ASC_NODE":"64.7809","PERIAPSIS":"511.079","FILE":"3550014","TLE_LINE2":"2 52502  53.2176  64.7809 0001356  76.7066  43.0031 15.17958639  1300","MEAN_MOTION_DDOT":"0.0000000000000","OBJECT_TYPE":"PAYLOAD","COUNTRY_CODE":"US","ELEMENT_SET_NO":"999","GP_ID":"211215550","MEAN_MOTION_DOT":"-0.01074459","SEMIMAJOR_AXIS":"6890.148","ECCENTRICITY":"0.00013560","OBJECT_NAME":"STARLINK-3912","CLASSIFICATION_TYPE":"U","SITE":"AFETR","PERIOD":"94.864","RCS_SIZE":"LARGE","ARG_OF_PERICENTER":"76.7066","EPOCH":"2022-08-28T22:00:00.999936","DECAY_DATE":null,"REV_AT_EPOCH":"130","NORAD_CAT_ID":"52502","INCLINATION":"53.2176","OBJECT_ID":"2022-049BD","LAUNCH_DATE":"2022-05-06","REF_FRAME":"TEME"},{"PERIOD":"94.878","RCS_SIZE":"LARGE","SITE":"AFETR","DECAY_DATE":null,"ARG_OF_PERICENTER":"69.3699","EPOCH":"2022-08-28T22:00:00.999936","CLASSIFICATION_TYPE":"U","OBJECT_NAME":"STARLINK-3861","LAUNCH_DATE":"2022-05-06","REF_FRAME":"TEME","REV_AT_EPOCH":"130","NORAD_CAT_ID":"52503","OBJECT_ID":"2022-049BE","INCLINATION":"53.2175","MEAN_ELEMENT_THEORY":"SGP4","BSTAR":"-0.05676100000000","RA_OF_ASC_NODE":"64.7784","TIME_SYSTEM":"UTC","EPHEMERIS_TYPE":"0","MEAN_MOTION":"15.17743958","PERIAPSIS":"511.713","FILE":"3550014","APOAPSIS":"513.612","TLE_LINE1":"1 52503U 22049BE  22240.91667824 -.01074632  00000-0 -56761-1 0  9996","CENTER_NAME":"EARTH","MEAN_ANOMALY":"38.5988","GP_ID":"211215405","ECCENTRICITY":"0.00013780","MEAN_MOTION_DOT":"-0.01074632","SEMIMAJOR_AXIS":"6890.798","MEAN_MOTION_DDOT":"0.0000000000000","OBJECT_TYPE":"PAYLOAD","COUNTRY_CODE":"US","TLE_LINE2":"2 52503  53.2175  64.7784 0001378  69.3699  38.5988 15.17743958  1302","ELEMENT_SET_NO":"999"}];
